EUTELSAT 8 WEST B       
1 40875U 15039B   25291.12400198 -.00000073  00000+0  00000+0 0  9995
2 40875   0.0698  13.3579 0003846 196.2066 213.9514  1.00271743 37222
EUTELSAT 9B             
1 41310U 16005A   25291.12738199  .00000054  00000+0  00000+0 0  9997
2 41310   0.0577  60.0211 0003734 180.2089 201.5136  1.00270414 35684
EUTELSAT 65 WEST A      
1 41382U 16014A   25291.11264860 -.00000284  00000+0  00000+0 0  9990
2 41382   0.0934  53.5132 0002254 160.8044 147.9126  1.00270450 35109
EUTELSAT 117 WEST B     
1 41589U 16038B   25290.95974411 -.00000020  00000+0  00000+0 0  9994
2 41589   0.0113  73.9335 0000242  39.9083 141.3870  1.00273488 34233
EUTELSAT 172B           
1 42741U 17029B   25290.87429038 -.00000014  00000+0  00000+0 0  9990
2 42741   0.0172 177.6269 0000156 167.1658 168.5746  1.00271276 31304
EUTELSAT 7C             
1 44334U 19034B   25291.12703534  .00000041  00000+0  00000+0 0  9992
2 44334   0.0654 186.7820 0003145   4.2453 248.5883  1.00270513  4403
EUTELSAT 5 WEST B       
1 44624U 19067A   25291.12460866 -.00000049  00000+0  00000+0 0  9997
2 44624   0.0742  30.0636 0003216 182.0102 214.6642  1.00272312 22006
EUTELSAT KONNECT        
1 45027U 20005B   25291.12703534  .00000042  00000+0  00000+0 0  9993
2 45027   0.0680  90.7474 0001614 147.3796 201.6916  1.00269600 21893
